[{"OBJECT_NAME":"STARLINK-5825","OBJECT_ID":"2023-028AU","EPOCH":"2026-03-09T21:39:59.898240","MEAN_MOTION":14.98334631,"ECCENTRICITY":0.00032006,"INCLINATION":70.0011,"RA_OF_ASC_NODE":204.0994,"ARG_OF_PERICENTER":268.1655,"MEAN_ANOMALY":91.9138,"EPHEMERIS_TYPE":0,"CLASSIFICATION_TYPE":"U","NORAD_CAT_ID":55783,"ELEMENT_SET_NO":999,"REV_AT_EPOCH":16705,"BSTAR":-0.00011912942,"MEAN_MOTION_DOT":-1.514e-5,"MEAN_MOTION_DDOT":0},{"OBJECT_NAME":"EZIE-C","OBJECT_ID":"2025-052AR","EPOCH":"2026-03-09T16:54:14.963904","MEAN_MOTION":14.96297342,"ECCENTRICITY":0.00032112,"INCLINATION":97.6981,"RA_OF_ASC_NODE":322.3863,"ARG_OF_PERICENTER":161.3597,"MEAN_ANOMALY":198.7743,"EPHEMERIS_TYPE":0,"CLASSIFICATION_TYPE":"U","NORAD_CAT_ID":63249,"ELEMENT_SET_NO":999,"REV_AT_EPOCH":5378,"BSTAR":0.0007072062,"MEAN_MOTION_DOT":7.941e-5,"MEAN_MOTION_DDOT":0}]
