STARLINK-5825           
1 55783U 23028AU  26068.90277660 -.00001514  00000+0 -11913-3 0  9992
2 55783  70.0011 204.0994 0003201 268.1655  91.9138 14.98334631167058
EZIE-C                  
1 63249U 25052AR  26068.70433986  .00007941  00000+0  70721-3 0  9990
2 63249  97.6981 322.3863 0003211 161.3597 198.7743 14.96297342 53781
